start=new Date('2022-05-01T00:00:00.000Z').valueOf();
sats=[{"CENTER_NAME":"EARTH","EPHEMERIS_TYPE":"0","INCLINATION":"53.0548","MEAN_MOTION_DDOT":"0.0000000000000","FILE":"3423346","LAUNCH_DATE":"2021-03-24","REF_FRAME":"TEME","SITE":"AFETR","ECCENTRICITY":"0.00017610","OBJECT_NAME":"STARLINK-2309","EPOCH":"2022-04-30T16:49:42.280320","REV_AT_EPOCH":"6298","CLASSIFICATION_TYPE":"U","ARG_OF_PERICENTER":"51.1086","COUNTRY_CODE":"US","OBJECT_TYPE":"PAYLOAD","MEAN_ANOMALY":"309.0060","MEAN_ELEMENT_THEORY":"SGP4","RA_OF_ASC_NODE":"121.8265","GP_ID":"202392029","PERIOD":"95.592","ELEMENT_SET_NO":"999","TLE_LINE1":"1 47995U 21024U   22120.70118380 -.00000764  00000-0 -32363-4 0  9998","OBJECT_ID":"2021-024U","APOAPSIS":"548.439","NORAD_CAT_ID":"47995","MEAN_MOTION_DOT":"-0.00000764","SEMIMAJOR_AXIS":"6925.354","MEAN_MOTION":"15.06398114","TIME_SYSTEM":"UTC","DECAY_DATE":null,"PERIAPSIS":"546.000","RCS_SIZE":"LARGE","BSTAR":"-0.00003236300000","TLE_LINE2":"2 47995  53.0548 121.8265 0001761  51.1086 309.0060 15.06398114 62983"},{"NORAD_CAT_ID":"47996","APOAPSIS":"459.246","OBJECT_ID":"2021-024V","TLE_LINE1":"1 47996U 21024V   22120.91667824 -.00137589  00000-0 -38616-2 0  9995","PERIOD":"93.718","ELEMENT_SET_NO":"999","RA_OF_ASC_NODE":"51.3237","GP_ID":"202390778","RCS_SIZE":"LARGE","BSTAR":"-0.00386160000000","TLE_LINE2":"2 47996  53.0471  51.3237 0004161 169.9236 111.8911 15.36523115  3654","PERIAPSIS":"453.558","MEAN_MOTION":"15.36523115","TIME_SYSTEM":"UTC","DECAY_DATE":null,"SEMIMAJOR_AXIS":"6834.537","MEAN_MOTION_DOT":"-0.00137589","ECCENTRICITY":"0.00041610","OBJECT_NAME":"STARLINK-2260","SITE":"AFETR","REF_FRAME":"TEME","LAUNCH_DATE":"2021-03-24","FILE":"3423346","MEAN_MOTION_DDOT":"0.0000000000000","EPHEMERIS_TYPE":"0","CENTER_NAME":"EARTH","INCLINATION":"53.0471","COUNTRY_CODE":"US","OBJECT_TYPE":"PAYLOAD","MEAN_ELEMENT_THEORY":"SGP4","MEAN_ANOMALY":"111.8911","ARG_OF_PERICENTER":"169.9236","CLASSIFICATION_TYPE":"U","REV_AT_EPOCH":"365","EPOCH":"2022-04-30T22:00:00.999936"},{"MEAN_MOTION_DOT":"-0.00001576","SEMIMAJOR_AXIS":"6925.374","PERIAPSIS":"545.984","TIME_SYSTEM":"UTC","DECAY_DATE":null,"MEAN_MOTION":"15.06391618","TLE_LINE2":"2 47997  53.0519 156.2090 0001812  50.6382 309.4768 15.06391618 62566","BSTAR":"-0.00008694900000","RCS_SIZE":"LARGE","ELEMENT_SET_NO":"999","PERIOD":"95.593","GP_ID":"202390528","RA_OF_ASC_NODE":"156.2090","TLE_LINE1":"1 47997U 21024W   22120.83712969 -.00001576  00000-0 -86949-4 0  9998","OBJECT_ID":"2021-024W","NORAD_CAT_ID":"47997","APOAPSIS":"548.494","REV_AT_EPOCH":"6256","EPOCH":"2022-04-30T20:05:28.005216","CLASSIFICATION_TYPE":"U","ARG_OF_PERICENTER":"50.6382","MEAN_ANOMALY":"309.4768","OBJECT_TYPE":"PAYLOAD","MEAN_ELEMENT_THEORY":"SGP4","COUNTRY_CODE":"US","INCLINATION":"53.0519","CENTER_NAME":"EARTH","EPHEMERIS_TYPE":"0","FILE":"3423346","LAUNCH_DATE":"2021-03-24","MEAN_MOTION_DDOT":"0.0000000000000","SITE":"AFETR","REF_FRAME":"TEME","OBJECT_NAME":"STARLINK-2266","ECCENTRICITY":"0.00018120"},{"OBJECT_NAME":"STARLINK-2296","ECCENTRICITY":"0.00020730","REF_FRAME":"TEME","SITE":"AFETR","MEAN_MOTION_DDOT":"0.0000000000000","FILE":"3423346","LAUNCH_DATE":"2021-03-24","CENTER_NAME":"EARTH","EPHEMERIS_TYPE":"0","INCLINATION":"53.0554","COUNTRY_CODE":"US","MEAN_ELEMENT_THEORY":"SGP4","OBJECT_TYPE":"PAYLOAD","MEAN_ANOMALY":"312.3915","ARG_OF_PERICENTER":"47.7249","CLASSIFICATION_TYPE":"U","EPOCH":"2022-04-30T18:08:00.245760","REV_AT_EPOCH":"6284","APOAPSIS":"548.676","NORAD_CAT_ID":"47998","OBJECT_ID":"2021-024X","TLE_LINE1":"1 47998U 21024X   22120.75555840 -.00001824  00000-0 -10362-3 0  9994","RA_OF_ASC_NODE":"131.5740","GP_ID":"202391780","ELEMENT_SET_NO":"999","PERIOD":"95.593","RCS_SIZE":"LARGE","TLE_LINE2":"2 47998  53.0554 131.5740 0002073  47.7249 312.3915 15.06391323 62844","BSTAR":"-0.00010362000000","MEAN_MOTION":"15.06391323","TIME_SYSTEM":"UTC","DECAY_DATE":null,"PERIAPSIS":"545.805","SEMIMAJOR_AXIS":"6925.375","MEAN_MOTION_DOT":"-0.00001824"},{"COUNTRY_CODE":"US","MEAN_ELEMENT_THEORY":"SGP4","OBJECT_TYPE":"PAYLOAD","MEAN_ANOMALY":"239.6195","ARG_OF_PERICENTER":"59.7817","CLASSIFICATION_TYPE":"U","REV_AT_EPOCH":"360","EPOCH":"2022-04-30T22:00:00.999936","OBJECT_NAME":"STARLINK-2218","ECCENTRICITY":"0.00015740","SITE":"AFETR","REF_FRAME":"TEME","LAUNCH_DATE":"2021-03-24","FILE":"3423346","MEAN_MOTION_DDOT":"0.0000000000000","CENTER_NAME":"EARTH","EPHEMERIS_TYPE":"0","INCLINATION":"53.0545","RCS_SIZE":"LARGE","TLE_LINE2":"2 47999  53.0545 100.8585 0001574  59.7817 239.6195 15.06396660  3609","BSTAR":"0.00102210000000","PERIAPSIS":"546.134","MEAN_MOTION":"15.06396660","TIME_SYSTEM":"UTC","DECAY_DATE":null,"MEAN_MOTION_DOT":"0.00014974","SEMIMAJOR_AXIS":"6925.359","NORAD_CAT_ID":"47999","APOAPSIS":"548.314","OBJECT_ID":"2021-024Y","TLE_LINE1":"1 47999U 21024Y   22120.91667824  .00014974  00000-0  10221-2 0  9990","ELEMENT_SET_NO":"999","PERIOD":"95.592","RA_OF_ASC_NODE":"100.8585","GP_ID":"202391530"},{"EPOCH":"2022-04-30T22:00:00.999936","REV_AT_EPOCH":"361","ARG_OF_PERICENTER":"37.2170","CLASSIFICATION_TYPE":"U","COUNTRY_CODE":"US","MEAN_ANOMALY":"24.7161","OBJECT_TYPE":"PAYLOAD","MEAN_ELEMENT_THEORY":"SGP4","CENTER_NAME":"EARTH","EPHEMERIS_TYPE":"0","INCLINATION":"53.0552","MEAN_MOTION_DDOT":"0.0000000000000","FILE":"3423346","LAUNCH_DATE":"2021-03-24","REF_FRAME":"TEME","SITE":"AFETR","OBJECT_NAME":"STARLINK-2270","ECCENTRICITY":"0.00022780","SEMIMAJOR_AXIS":"6925.408","MEAN_MOTION_DOT":"0.00031157","MEAN_MOTION":"15.06380525","DECAY_DATE":null,"TIME_SYSTEM":"UTC","PERIAPSIS":"545.696","RCS_SIZE":"LARGE","TLE_LINE2":"2 48000  53.0552  85.8409 0002278  37.2170  24.7161 15.06380525  3613","BSTAR":"0.00210240000000","RA_OF_ASC_NODE":"85.8409","GP_ID":"202390278","PERIOD":"95.593","ELEMENT_SET_NO":"999","TLE_LINE1":"1 48000U 21024Z   22120.91667824  .00031157  00000-0  21024-2 0  9999","OBJECT_ID":"2021-024Z","APOAPSIS":"548.851","NORAD_CAT_ID":"48000"},{"SITE":"AFETR","REF_FRAME":"TEME","ECCENTRICITY":"0.00016860","OBJECT_NAME":"STARLINK-2265","CENTER_NAME":"EARTH","EPHEMERIS_TYPE":"0","INCLINATION":"53.0546","FILE":"3423346","LAUNCH_DATE":"2021-03-24","MEAN_MOTION_DDOT":"0.0000000000000","CLASSIFICATION_TYPE":"U","ARG_OF_PERICENTER":"53.7314","COUNTRY_CODE":"US","OBJECT_TYPE":"PAYLOAD","MEAN_ELEMENT_THEORY":"SGP4","MEAN_ANOMALY":"278.1340","REV_AT_EPOCH":"361","EPOCH":"2022-04-30T22:00:00.999936","OBJECT_ID":"2021-024AB","NORAD_CAT_ID":"48002","APOAPSIS":"548.420","ELEMENT_SET_NO":"999","PERIOD":"95.593","RA_OF_ASC_NODE":"105.8408","GP_ID":"202391029","TLE_LINE1":"1 48002U 21024AB  22120.91667824  .00012922  00000-0  88510-3 0  9994","RCS_SIZE":"LARGE","TLE_LINE2":"2 48002  53.0546 105.8408 0001686  53.7314 278.1340 15.06387362  3615","BSTAR":"0.00088510000000","SEMIMAJOR_AXIS":"6925.387","MEAN_MOTION_DOT":"0.00012922","PERIAPSIS":"546.085","MEAN_MOTION":"15.06387362","TIME_SYSTEM":"UTC","DECAY_DATE":null},{"REF_FRAME":"TEME","SITE":"AFETR","ECCENTRICITY":"0.00018650","OBJECT_NAME":"STARLINK-2263","INCLINATION":"53.0544","CENTER_NAME":"EARTH","EPHEMERIS_TYPE":"0","MEAN_MOTION_DDOT":"0.0000000000000","FILE":"3423346","LAUNCH_DATE":"2021-03-24","CLASSIFICATION_TYPE":"U","ARG_OF_PERICENTER":"44.1019","MEAN_ELEMENT_THEORY":"SGP4","OBJECT_TYPE":"PAYLOAD","MEAN_ANOMALY":"316.0118","COUNTRY_CODE":"US","EPOCH":"2022-04-30T20:57:52.681824","REV_AT_EPOCH":"6215","OBJECT_ID":"2021-024AC","APOAPSIS":"548.504","NORAD_CAT_ID":"48003","GP_ID":"202391280","RA_OF_ASC_NODE":"181.0450","ELEMENT_SET_NO":"999","PERIOD":"95.592","TLE_LINE1":"1 48003U 21024AC  22120.87352641  .00008725  00000-0  60392-3 0  9992","BSTAR":"0.00060392000000","TLE_LINE2":"2 48003  53.0544 181.0450 0001865  44.1019 316.0118 15.06400257 62150","RCS_SIZE":"LARGE","SEMIMAJOR_AXIS":"6925.348","MEAN_MOTION_DOT":"0.00008725","TIME_SYSTEM":"UTC","DECAY_DATE":null,"MEAN_MOTION":"15.06400257","PERIAPSIS":"545.921"},{"BSTAR":"-0.00004000800000","TLE_LINE2":"2 48005  53.0537 152.3325 0002053  46.3685 313.7474 15.06385143 62536","RCS_SIZE":"LARGE","MEAN_MOTION_DOT":"-0.00000877","SEMIMAJOR_AXIS":"6925.394","PERIAPSIS":"545.837","DECAY_DATE":null,"TIME_SYSTEM":"UTC","MEAN_MOTION":"15.06385143","OBJECT_ID":"2021-024AE","NORAD_CAT_ID":"48005","APOAPSIS":"548.681","ELEMENT_SET_NO":"999","PERIOD":"95.593","GP_ID":"202392030","RA_OF_ASC_NODE":"152.3325","TLE_LINE1":"1 48005U 21024AE  22120.58510978 -.00000877  00000-0 -40008-4 0  9996","ARG_OF_PERICENTER":"46.3685","CLASSIFICATION_TYPE":"U","OBJECT_TYPE":"PAYLOAD","MEAN_ANOMALY":"313.7474","MEAN_ELEMENT_THEORY":"SGP4","COUNTRY_CODE":"US","REV_AT_EPOCH":"6253","EPOCH":"2022-04-30T14:02:33.484992","SITE":"AFETR","REF_FRAME":"TEME","ECCENTRICITY":"0.00020530","OBJECT_NAME":"STARLINK-2254","INCLINATION":"53.0537","CENTER_NAME":"EARTH","EPHEMERIS_TYPE":"0","FILE":"3423346","LAUNCH_DATE":"2021-03-24","MEAN_MOTION_DDOT":"0.0000000000000"},{"GP_ID":"202390779","RA_OF_ASC_NODE":"85.8341","ELEMENT_SET_NO":"999","PERIOD":"95.593","TLE_LINE1":"1 48008U 21024AH  22120.91667824  .00023975  00000-0  16237-2 0  9996","OBJECT_ID":"2021-024AH","APOAPSIS":"548.327","NORAD_CAT_ID":"48008","MEAN_MOTION_DOT":"0.00023975","SEMIMAJOR_AXIS":"6925.400","DECAY_DATE":null,"TIME_SYSTEM":"UTC","MEAN_MOTION":"15.06383248","PERIAPSIS":"546.203","TLE_LINE2":"2 48008  53.0547  85.8341 0001534  67.1998 174.7318 15.06383248  3619","BSTAR":"0.00162370000000","RCS_SIZE":"LARGE","INCLINATION":"53.0547","EPHEMERIS_TYPE":"0","CENTER_NAME":"EARTH","MEAN_MOTION_DDOT":"0.0000000000000","LAUNCH_DATE":"2021-03-24","FILE":"3423346","REF_FRAME":"TEME","SITE":"AFETR","OBJECT_NAME":"STARLINK-2271","ECCENTRICITY":"0.00015340","EPOCH":"2022-04-30T22:00:00.999936","REV_AT_EPOCH":"361","CLASSIFICATION_TYPE":"U","ARG_OF_PERICENTER":"67.1998","OBJECT_TYPE":"PAYLOAD","MEAN_ELEMENT_THEORY":"SGP4","MEAN_ANOMALY":"174.7318","COUNTRY_CODE":"US"}];
